IONOSFERA-M 4           
1 64877U 25155B   26194.18363594  .00000008  00000+0  23273-4 0  9999
2 64877  98.6037 155.3534 0001788 101.7764 258.3614 14.21493028 50090
MICROCARB               
1 64899U 25156A   26193.76512662  .00000278  00000+0  51100-4 0  9998
2 64899  98.0075 270.5014 0017429 178.3822 181.7446 14.72883584 51737
CO3D 3                  
1 64900U 25156B   26193.92431889  .00002495  00000+0  11833-3 0  9991
2 64900  97.4341 272.2471 0001763  99.3411 260.8023 15.20201905 53440
CO3D 4                  
1 64901U 25156C   26194.18779109  .00000734  00000+0  37017-4 0  9998
2 64901  97.4334 272.5071 0001502 157.6137 202.5164 15.20201210 53488
CO3D 2                  
1 64902U 25156D   26194.02279144  .00002539  00000+0  12033-3 0  9991
2 64902  97.4336 272.2430 0001272  90.2331 269.9050 15.20211031 53459
CO3D 1                  
1 64903U 25156E   26194.15459205  .00002672  00000+0  12655-3 0  9992
2 64903  97.4336 272.3730 0001289  97.9332 262.2050 15.20191895 53470
PRSC-S1                 
1 65055U 25164A   26194.18453966  .00002280  00000+0  16289-3 0  9993
2 65055  41.1295 141.3724 0006388 185.1253 174.9496 15.06625376 52353
SENTINEL-6B             
1 66514U 25264A   26193.92896572 -.00000059  00000+0  10665-4 0  9996
2 66514  66.0413  81.7138 0007872 268.7841  91.2272 12.80930082 30461
CAS500-3                
1 66655U 25274F   26193.76257639  .00000668  00000+0  77894-4 0  9992
2 66655  97.7438 121.2320 0006381  44.6200 315.5529 14.88380520 33952
CSG-3                   
1 67304U 26001A   26193.92056157  .00000144  00000+0  24641-4 0  9994
2 67304  97.8893  17.1503 0001515  93.4463 266.6923 14.82151156 28271
PRSC-E03                
1 68835U 26092A   26194.16700285  .00001428  00000+0  10131-3 0  9993
2 68835  38.0018 296.4688 0004758 238.7605 121.2691 15.06803912 11874
CAS500-2                
1 69013U 26100AK  26194.14293856  .00003624  00000+0  16699-3 0  9996
2 69013  97.3875  91.5067 0007902 300.8492  59.1966 15.20887700 10759
