OBJECT_NAME,OBJECT_ID,EPOCH,MEAN_MOTION,ECCENTRICITY,INCLINATION,RA_OF_ASC_NODE,ARG_OF_PERICENTER,MEAN_ANOMALY,EPHEMERIS_TYPE,CLASSIFICATION_TYPE,NORAD_CAT_ID,ELEMENT_SET_NO,REV_AT_EPOCH,BSTAR,MEAN_MOTION_DOT,MEAN_MOTION_DDOT
IONOSFERA-M 4,2025-155B,2026-07-13T04:24:26.145216,14.21493028,.0001788,98.6037,155.3534,101.7764,258.3614,0,U,64877,999,5009,.23273E-4,.8E-7,0
MICROCARB,2025-156A,2026-07-12T18:21:46.939968,14.72883584,.0017429,98.0075,270.5014,178.3822,181.7446,0,U,64899,999,5173,.511E-4,.278E-5,0
CO3D 3,2025-156B,2026-07-12T22:11:01.152096,15.20201905,.0001763,97.4341,272.2471,99.3411,260.8023,0,U,64900,999,5344,.11833E-3,.2495E-4,0
CO3D 4,2025-156C,2026-07-13T04:30:25.150176,15.20201210,.0001502,97.4334,272.5071,157.6137,202.5164,0,U,64901,999,5348,.37017E-4,.734E-5,0
CO3D 2,2025-156D,2026-07-13T00:32:49.180416,15.20211031,.0001272,97.4336,272.2430,90.2331,269.9050,0,U,64902,999,5345,.12033E-3,.2539E-4,0
CO3D 1,2025-156E,2026-07-13T03:42:36.753120,15.20191895,.0001289,97.4336,272.3730,97.9332,262.2050,0,U,64903,999,5347,.12655E-3,.2672E-4,0
PRSC-S1,2025-164A,2026-07-13T04:25:44.226624,15.06625376,.0006388,41.1295,141.3724,185.1253,174.9496,0,U,65055,999,5235,.16289E-3,.228E-4,0
SENTINEL-6B,2025-264A,2026-07-12T22:17:42.638208,12.80930082,.0007872,66.0413,81.7138,268.7841,91.2272,0,U,66514,999,3046,.10665E-4,-.59E-6,0
CAS500-3,2025-274F,2026-07-12T18:18:06.600096,14.88380520,.0006381,97.7438,121.2320,44.6200,315.5529,0,U,66655,999,3395,.77894E-4,.668E-5,0
CSG-3,2026-001A,2026-07-12T22:05:36.519648,14.82151156,.0001515,97.8893,17.1503,93.4463,266.6923,0,U,67304,999,2827,.24641E-4,.144E-5,0
PRSC-E03,2026-092A,2026-07-13T04:00:29.046240,15.06803912,.0004758,38.0018,296.4688,238.7605,121.2691,0,U,68835,999,1187,.10131E-3,.1428E-4,0
CAS500-2,2026-100AK,2026-07-13T03:25:49.891584,15.20887700,.0007902,97.3875,91.5067,300.8492,59.1966,0,U,69013,999,1075,.16699E-3,.3624E-4,0
